{
  "type": "FeatureCollection",
  "features": [
    {
      "type": "Feature",
      "properties": {
        "norad_id": 66800,
        "name": "STARLINK-35996",
        "group": "last-30-days",
        "lat": -6.973627799776981,
        "lon": 163.26794783401948,
        "alt_km": 415.3029469148969,
        "timestamp": "2025-12-26T07:29:17.193371+00:00",
        "meta_object_name": "STARLINK-35996",
        "meta_object_id": "2025-278K",
        "meta_epoch": "2025-12-25T22:00:01.999584",
        "meta_mean_motion": 15.50469876,
        "meta_eccentricity": 0.00015992,
        "meta_inclination": 43.0002,
        "meta_ra_of_asc_node": 173.1231,
        "meta_arg_of_pericenter": 280.3552,
        "meta_mean_anomaly": 20.2213,
        "meta_ephemeris_type": 0,
        "meta_classification_type": "U",
        "meta_norad_cat_id": 66800,
        "meta_element_set_no": 999,
        "meta_rev_at_epoch": 486,
        "meta_bstar": 0.0019613093,
        "meta_mean_motion_dot": 0.00115987,
        "meta_mean_motion_ddot": 0,
        "tle_line1": "1 66800U 25278K   25359.91668981  .00115987  00000+0  19613-2 0  9998",
        "tle_line2": "2 66800  43.0002 173.1231 0001599 280.3552  20.2213 15.50469876  4867"
      },
      "geometry": {
        "type": "Point",
        "coordinates": [
          163.26794783401948,
          -6.973627799776981
        ]
      }
    },
    {
      "type": "Feature",
      "properties": {
        "norad_id": 66801,
        "name": "STARLINK-36080",
        "group": "last-30-days",
        "lat": -0.5528110770045119,
        "lon": 170.19186604628638,
        "alt_km": 415.79352399193795,
        "timestamp": "2025-12-26T07:29:17.193381+00:00",
        "meta_object_name": "STARLINK-36080",
        "meta_object_id": "2025-278L",
        "meta_epoch": "2025-12-25T22:00:01.999584",
        "meta_mean_motion": 15.5083602,
        "meta_eccentricity": 0.00022699,
        "meta_inclination": 43.0003,
        "meta_ra_of_asc_node": 173.0977,
        "meta_arg_of_pericenter": 274.1986,
        "meta_mean_anomaly": 35.8262,
        "meta_ephemeris_type": 0,
        "meta_classification_type": "U",
        "meta_norad_cat_id": 66801,
        "meta_element_set_no": 999,
        "meta_rev_at_epoch": 507,
        "meta_bstar": -0.014148949,
        "meta_mean_motion_dot": -0.00771545,
        "meta_mean_motion_ddot": 0,
        "tle_line1": "1 66801U 25278L   25359.91668981 -.00771545  00000+0 -14149-1 0  9997",
        "tle_line2": "2 66801  43.0003 173.0977 0002269 274.1986  35.8262 15.50836020  5071"
      },
      "geometry": {
        "type": "Point",
        "coordinates": [
          170.19186604628638,
          -0.5528110770045119
        ]
      }
    },
    {
      "type": "Feature",
      "properties": {
        "norad_id": 66802,
        "name": "STARLINK-35604",
        "group": "last-30-days",
        "lat": -8.280576004735845,
        "lon": 161.82893366195032,
        "alt_km": 415.4075825544278,
        "timestamp": "2025-12-26T07:29:17.193391+00:00",
        "meta_object_name": "STARLINK-35604",
        "meta_object_id": "2025-278M",
        "meta_epoch": "2025-12-25T22:00:01.999584",
        "meta_mean_motion": 15.50501592,
        "meta_eccentricity": 0.00016436,
        "meta_inclination": 43.0003,
        "meta_ra_of_asc_node": 173.1269,
        "meta_arg_of_pericenter": 276.7632,
        "meta_mean_anomaly": 21.8374,
        "meta_ephemeris_type": 0,
        "meta_classification_type": "U",
        "meta_norad_cat_id": 66802,
        "meta_element_set_no": 999,
        "meta_rev_at_epoch": 507,
        "meta_bstar": 0.0017285781,
        "meta_mean_motion_dot": 0.00102117,
        "meta_mean_motion_ddot": 0,
        "tle_line1": "1 66802U 25278M   25359.91668981  .00102117  00000+0  17286-2 0  9995",
        "tle_line2": "2 66802  43.0003 173.1269 0001643 276.7632  21.8374 15.50501592  5070"
      },
      "geometry": {
        "type": "Point",
        "coordinates": [
          161.82893366195032,
          -8.280576004735845
        ]
      }
    },
    {
      "type": "Feature",
      "properties": {
        "norad_id": 66803,
        "name": "STARLINK-35565",
        "group": "last-30-days",
        "lat": -32.89142041336202,
        "lon": 126.96566731195878,
        "alt_km": 446.4074218966789,
        "timestamp": "2025-12-26T07:29:17.193401+00:00",
        "meta_object_name": "STARLINK-35565",
        "meta_object_id": "2025-278N",
        "meta_epoch": "2025-12-25T22:00:01.999584",
        "meta_mean_motion": 15.41296821,
        "meta_eccentricity": 0.00013889,
        "meta_inclination": 43.0003,
        "meta_ra_of_asc_node": 173.1928,
        "meta_arg_of_pericenter": 294.6932,
        "meta_mean_anomaly": 337.0322,
        "meta_ephemeris_type": 0,
        "meta_classification_type": "U",
        "meta_norad_cat_id": 66803,
        "meta_element_set_no": 999,
        "meta_rev_at_epoch": 516,
        "meta_bstar": -0.023270538,
        "meta_mean_motion_dot": -0.00910812,
        "meta_mean_motion_ddot": 0,
        "tle_line1": "1 66803U 25278N   25359.91668981 -.00910812  00000+0 -23271-1 0  9997",
        "tle_line2": "2 66803  43.0003 173.1928 0001388 294.6932 337.0322 15.41296821  5162"
      },
      "geometry": {
        "type": "Point",
        "coordinates": [
          126.96566731195878,
          -32.89142041336202
        ]
      }
    },
    {
      "type": "Feature",
      "properties": {
        "norad_id": 66804,
        "name": "STARLINK-36038",
        "group": "last-30-days",
        "lat": -26.56425994187938,
        "lon": 138.43658170678435,
        "alt_km": 441.9917139852705,
        "timestamp": "2025-12-26T07:29:17.193413+00:00",
        "meta_object_name": "STARLINK-36038",
        "meta_object_id": "2025-278P",
        "meta_epoch": "2025-12-25T22:00:01.999584",
        "meta_mean_motion": 15.4337154,
        "meta_eccentricity": 0.0001075,
        "meta_inclination": 43.0004,
        "meta_ra_of_asc_node": 173.1703,
        "meta_arg_of_pericenter": 274.5666,
        "meta_mean_anomaly": 6.4506,
        "meta_ephemeris_type": 0,
        "meta_classification_type": "U",
        "meta_norad_cat_id": 66804,
        "meta_element_set_no": 999,
        "meta_rev_at_epoch": 507,
        "meta_bstar": -0.039088722,
        "meta_mean_motion_dot": -0.01602498,
        "meta_mean_motion_ddot": 0,
        "tle_line1": "1 66804U 25278P   25359.91668981 -.01602498  00000+0 -39089-1 0  9991",
        "tle_line2": "2 66804  43.0004 173.1703 0001075 274.5666   6.4506 15.43371540  5074"
      },
      "geometry": {
        "type": "Point",
        "coordinates": [
          138.43658170678435,
          -26.56425994187938
        ]
      }
    },
    {
      "type": "Feature",
      "properties": {
        "norad_id": 66805,
        "name": "STARLINK-36049",
        "group": "last-30-days",
        "lat": -13.386265827837166,
        "lon": 156.03732549472255,
        "alt_km": 435.139991936946,
        "timestamp": "2025-12-26T07:29:17.193423+00:00",
        "meta_object_name": "STARLINK-36049",
        "meta_object_id": "2025-278Q",
        "meta_epoch": "2025-12-25T22:00:01.999584",
        "meta_mean_motion": 15.45754313,
        "meta_eccentricity": 0.00012984,
        "meta_inclination": 42.9999,
        "meta_ra_of_asc_node": 173.1268,
        "meta_arg_of_pericenter": 261.5984,
        "meta_mean_anomaly": 37.3899,
        "meta_ephemeris_type": 0,
        "meta_classification_type": "U",
        "meta_norad_cat_id": 66805,
        "meta_element_set_no": 999,
        "meta_rev_at_epoch": 507,
        "meta_bstar": -0.044350114,
        "meta_mean_motion_dot": -0.01964306,
        "meta_mean_motion_ddot": 0,
        "tle_line1": "1 66805U 25278Q   25359.91668981 -.01964306  00000+0 -44350-1 0  9998",
        "tle_line2": "2 66805  42.9999 173.1268 0001298 261.5984  37.3899 15.45754313  5071"
      },
      "geometry": {
        "type": "Point",
        "coordinates": [
          156.03732549472255,
          -13.386265827837166
        ]
      }
    },
    {
      "type": "Feature",
      "properties": {
        "norad_id": 66806,
        "name": "STARLINK-36069",
        "group": "last-30-days",
        "lat": -3.0776110107713164,
        "lon": 167.48762918235002,
        "alt_km": 415.01328063388337,
        "timestamp": "2025-12-26T07:29:17.193433+00:00",
        "meta_object_name": "STARLINK-36069",
        "meta_object_id": "2025-278R",
        "meta_epoch": "2025-12-25T22:00:01.999584",
        "meta_mean_motion": 15.50575545,
        "meta_eccentricity": 0.00018531,
        "meta_inclination": 43.0003,
        "meta_ra_of_asc_node": 173.1081,
        "meta_arg_of_pericenter": 273.7354,
        "meta_mean_anomaly": 32.503,
        "meta_ephemeris_type": 0,
        "meta_classification_type": "U",
        "meta_norad_cat_id": 66806,
        "meta_element_set_no": 999,
        "meta_rev_at_epoch": 486,
        "meta_bstar": -0.00030035214,
        "meta_mean_motion_dot": -0.0001792,
        "meta_mean_motion_ddot": 0,
        "tle_line1": "1 66806U 25278R   25359.91668981 -.00017920  00000+0 -30035-3 0  9996",
        "tle_line2": "2 66806  43.0003 173.1081 0001853 273.7354  32.5030 15.50575545  4860"
      },
      "geometry": {
        "type": "Point",
        "coordinates": [
          167.48762918235002,
          -3.0776110107713164
        ]
      }
    }
  ]
}